QIANFAN-49              
1 62250U 24232P   25317.80691791  .00000273  00000+0  40510-3 0  9991
2 62250  89.0046  44.1492 0012336 277.4312  82.5437 13.50975173 63930
QIANFAN-50              
1 62251U 24232Q   25317.83160270  .00000296  00000+0  44086-3 0  9995
2 62251  89.0051  44.1532 0013984 279.0291  80.9277 13.50975782 63969
QIANFAN-51              
1 62252U 24232R   25317.81513755  .00000275  00000+0  40770-3 0  9997
2 62252  89.0045  44.1506 0011464 283.2555  76.7317 13.50973546 63958
QIANFAN-52              
1 62253U 24232S   25317.76989674  .00000272  00000+0  40337-3 0  9995
2 62253  89.0041  44.0299 0013497 274.6442  85.3167 13.50974602 64033
QIANFAN-53              
1 62254U 24232T   25317.82340764  .00000279  00000+0  41393-3 0  9994
2 62254  89.0049  44.1268 0012377 275.5730  84.4010 13.50985784 64002
QIANFAN-54              
1 62255U 24232U   25317.86454318  .00000284  00000+0  42109-3 0  9992
2 62255  89.0040  43.8037 0001091  22.7125 337.4074 13.50974735 95510
QIANFAN-55              
1 62785U 25016A   25317.81678286  .00000199  00000+0  28914-3 0  9991
2 62785  88.9755 106.1941 0018838  74.3460 285.9768 13.50979392 43286
QIANFAN-56              
1 62786U 25016B   25317.83307815  .00000167  00000+0  23910-3 0  9997
2 62786  88.9729 106.0367 0017506  76.6873 283.6229 13.50980069 43339
